{"type": "FeatureCollection", "features": [ {"type": "Feature", "properties": {"norad_id": 35997, "name": "COSMOS 2251 DEB", "group": "cosmos-2251-debris", "lat": 55.74039457512527, "lon": -126.1029085416816, "alt_km": 723.8316091910146, "timestamp": "2025-12-01T03:58:49.148343+00:00", "meta": {"OBJECT_NAME": "COSMOS 2251 DEB", "OBJECT_ID": "1993-036AWP", "EPOCH": "2025-11-30T09:30:32.541408", "MEAN_MOTION": 14.51224164, "ECCENTRICITY": 0.00159157, "INCLINATION": 74.0443, "RA_OF_ASC_NODE": 210.5069, "ARG_OF_PERICENTER": 286.8451, "MEAN_ANOMALY": 73.0964, "EPHEMERIS_TYPE": 0, "CLASSIFICATION_TYPE": "U", "NORAD_CAT_ID": 35997, "ELEMENT_SET_NO": 999, "REV_AT_EPOCH": 70705, "BSTAR": 0.00062927755, "MEAN_MOTION_DOT": 2.478e-05, "MEAN_MOTION_DDOT": 0, "GROUP": "cosmos-2251-debris"}, "tle": {"line1": "1 35997U 93036AWP 25334.39620997  .00002478  00000+0  62928-3 0  9996", "line2": "2 35997  74.0443 210.5069 0015915 286.8451  73.0964 14.51224164707053"}}, "geometry": {"type": "Point", "coordinates": [-126.1029085416816, 55.74039457512527]}}, {"type": "Feature", "properties": {"norad_id": 36005, "name": "COSMOS 2251 DEB", "group": "cosmos-2251-debris", "lat": -67.68137290803793, "lon": -20.08895167912461, "alt_km": 697.1186731491571, "timestamp": "2025-12-01T03:58:49.148355+00:00", "meta": {"OBJECT_NAME": "COSMOS 2251 DEB", "OBJECT_ID": "1993-036AWX", "EPOCH": "2025-11-30T03:34:53.933376", "MEAN_MOTION": 14.47325159, "ECCENTRICITY": 0.00621126, "INCLINATION": 74.0253, "RA_OF_ASC_NODE": 117.5615, "ARG_OF_PERICENTER": 257.425, "MEAN_ANOMALY": 101.9958, "EPHEMERIS_TYPE": 0, "CLASSIFICATION_TYPE": "U", "NORAD_CAT_ID": 36005, "ELEMENT_SET_NO": 999, "REV_AT_EPOCH": 87402, "BSTAR": 0.00024119632, "MEAN_MOTION_DOT": 8.76e-06, "MEAN_MOTION_DDOT": 0, "GROUP": "cosmos-2251-debris"}, "tle": {"line1": "1 36005U 93036AWX 25334.14923534  .00000876  00000+0  24120-3 0  9995", "line2": "2 36005  74.0253 117.5615 0062112 257.4250 101.9958 14.47325159874025"}}, "geometry": {"type": "Point", "coordinates": [-20.08895167912461, -67.68137290803793]}}, {"type": "Feature", "properties": {"norad_id": 36045, "name": "COSMOS 2251 DEB", "group": "cosmos-2251-debris", "lat": 69.59483057867936, "lon": -149.6803803338657, "alt_km": 621.3720943254712, "timestamp": "2025-12-01T03:58:49.148365+00:00", "meta": {"OBJECT_NAME": "COSMOS 2251 DEB", "OBJECT_ID": "1993-036AXG", "EPOCH": "2025-11-25T15:09:05.798304", "MEAN_MOTION": 14.69141127, "ECCENTRICITY": 0.00493194, "INCLINATION": 73.7631, "RA_OF_ASC_NODE": 92.7831, "ARG_OF_PERICENTER": 112.4125, "MEAN_ANOMALY": 248.2279, "EPHEMERIS_TYPE": 0, "CLASSIFICATION_TYPE": "U", "NORAD_CAT_ID": 36045, "ELEMENT_SET_NO": 999, "REV_AT_EPOCH": 8137, "BSTAR": 0.0031767871, "MEAN_MOTION_DOT": 0.00019055, "MEAN_MOTION_DDOT": 0, "GROUP": "cosmos-2251-debris"}, "tle": {"line1": "1 36045U 93036AXG 25329.63131711  .00019055  00000+0  31768-2 0  9999", "line2": "2 36045  73.7631  92.7831 0049319 112.4125 248.2279 14.69141127 81378"}}, "geometry": {"type": "Point", "coordinates": [-149.6803803338657, 69.59483057867936]}}, {"type": "Feature", "properties": {"norad_id": 36046, "name": "COSMOS 2251 DEB", "group": "cosmos-2251-debris", "lat": -12.9758129604312, "lon": -64.99082719701424, "alt_km": 688.340542310938, "timestamp": "2025-12-01T03:58:49.148375+00:00", "meta": {"OBJECT_NAME": "COSMOS 2251 DEB", "OBJECT_ID": "1993-036AXH", "EPOCH": "2025-11-30T15:43:47.741088", "MEAN_MOTION": 14.65139878, "ECCENTRICITY": 0.0055285, "INCLINATION": 74.0163, "RA_OF_ASC_NODE": 299.7789, "ARG_OF_PERICENTER": 89.1989, "MEAN_ANOMALY": 86.8577, "EPHEMERIS_TYPE": 0, "CLASSIFICATION_TYPE": "U", "NORAD_CAT_ID": 36046, "ELEMENT_SET_NO": 999, "REV_AT_EPOCH": 63826, "BSTAR": 0.00059903, "MEAN_MOTION_DOT": 3.263e-05, "MEAN_MOTION_DDOT": 0, "GROUP": "cosmos-2251-debris"}, "tle": {"line1": "1 36046U 93036AXH 25334.65541367  .00003263  00000+0  59903-3 0  9996", "line2": "2 36046  74.0163 299.7789 0055285  89.1989  86.8577 14.65139878638260"}}, "geometry": {"type": "Point", "coordinates": [-64.99082719701424, -12.9758129604312]}}, {"type": "Feature", "properties": {"norad_id": 36047, "name": "COSMOS 2251 DEB", "group": "cosmos-2251-debris", "lat": 73.28051573553637, "lon": 105.1654971039035, "alt_km": 572.6193343017594, "timestamp": "2025-12-01T03:58:49.148385+00:00", "meta": {"OBJECT_NAME": "COSMOS 2251 DEB", "OBJECT_ID": "1993-036AXJ", "EPOCH": "2025-11-30T08:17:16.665792", "MEAN_MOTION": 14.95186733, "ECCENTRICITY": 0.00075422, "INCLINATION": 74.0364, "RA_OF_ASC_NODE": 359.1751, "ARG_OF_PERICENTER": 25.2015, "MEAN_ANOMALY": 334.9536, "EPHEMERIS_TYPE": 0, "CLASSIFICATION_TYPE": "U", "NORAD_CAT_ID": 36047, "ELEMENT_SET_NO": 999, "REV_AT_EPOCH": 65754, "BSTAR": 0.0025608915, "MEAN_MOTION_DOT": 0.00028235, "MEAN_MOTION_DDOT": 0, "GROUP": "cosmos-2251-debris"}, "tle": {"line1": "1 36047U 93036AXJ 25334.34533178  .00028235  00000+0  25609-2 0  9995", "line2": "2 36047  74.0364 359.1751 0007542  25.2015 334.9536 14.95186733657547"}}, "geometry": {"type": "Point", "coordinates": [105.1654971039035, 73.28051573553637]}}, {"type": "Feature", "properties": {"norad_id": 36048, "name": "COSMOS 2251 DEB", "group": "cosmos-2251-debris", "lat": -73.84091493904626, "lon": -138.81872780988823, "alt_km": 777.7439324897687, "timestamp": "2025-12-01T03:58:49.148395+00:00", "meta": {"OBJECT_NAME": "COSMOS 2251 DEB", "OBJECT_ID": "1993-036AXK", "EPOCH": "2025-11-30T17:33:19.688832", "MEAN_MOTION": 14.37816305, "ECCENTRICITY": 0.0026095, "INCLINATION": 74.0561, "RA_OF_ASC_NODE": 321.3686, "ARG_OF_PERICENTER": 14.1894, "MEAN_ANOMALY": 166.044, "EPHEMERIS_TYPE": 0, "CLASSIFICATION_TYPE": "U", "NORAD_CAT_ID": 36048, "ELEMENT_SET_NO": 999, "REV_AT_EPOCH": 85329, "BSTAR": 0.00027909, "MEAN_MOTION_DOT": 8.18e-06, "MEAN_MOTION_DDOT": 0, "GROUP": "cosmos-2251-debris"}, "tle": {"line1": "1 36048U 93036AXK 25334.73147788  .00000818  00000+0  27909-3 0  9990", "line2": "2 36048  74.0561 321.3686 0026095  14.1894 166.0440 14.37816305853290"}}, "geometry": {"type": "Point", "coordinates": [-138.81872780988823, -73.84091493904626]}}, {"type": "Feature", "properties": {"norad_id": 36049, "name": "COSMOS 2251 DEB", "group": "cosmos-2251-debris", "lat": 73.77039877863218, "lon": -138.99130224120557, "alt_km": 685.7790052449, "timestamp": "2025-12-01T03:58:49.148405+00:00", "meta": {"OBJECT_NAME": "COSMOS 2251 DEB", "OBJECT_ID": "1993-036AXL", "EPOCH": "2025-11-30T17:43:41.151072", "MEAN_MOTION": 14.61873213, "ECCENTRICITY": 0.0011466, "INCLINATION": 74.0303, "RA_OF_ASC_NODE": 142.1632, "ARG_OF_PERICENTER": 226.682, "MEAN_ANOMALY": 133.3391, "EPHEMERIS_TYPE": 0, "CLASSIFICATION_TYPE": "U", "NORAD_CAT_ID": 36049, "ELEMENT_SET_NO": 999, "REV_AT_EPOCH": 85189, "BSTAR": 0.0014493, "MEAN_MOTION_DOT": 7.231e-05, "MEAN_MOTION_DDOT": 0, "GROUP": "cosmos-2251-debris"}, "tle": {"line1": "1 36049U 93036AXL 25334.73867073  .00007231  00000+0  14493-2 0  9996", "line2": "2 36049  74.0303 142.1632 0011466 226.6820 133.3391 14.61873213851894"}}, "geometry": {"type": "Point", "coordinates": [-138.99130224120557, 73.77039877863218]}}, {"type": "Feature", "properties": {"norad_id": 36050, "name": "COSMOS 2251 DEB", "group": "cosmos-2251-debris", "lat": -19.110488115482692, "lon": -148.10417932777753, "alt_km": 521.9017989750182, "timestamp": "2025-12-01T03:58:49.148415+00:00", "meta": {"OBJECT_NAME": "COSMOS 2251 DEB", "OBJECT_ID": "1993-036AXM", "EPOCH": "2025-11-29T10:28:15.671136", "MEAN_MOTION": 15.00734928, "ECCENTRICITY": 0.00892831, "INCLINATION": 74.0316, "RA_OF_ASC_NODE": 221.1088, "ARG_OF_PERICENTER": 303.7997, "MEAN_ANOMALY": 55.471, "EPHEMERIS_TYPE": 0, "CLASSIFICATION_TYPE": "U", "NORAD_CAT_ID": 36050, "ELEMENT_SET_NO": 999, "REV_AT_EPOCH": 66835, "BSTAR": 0.00061877137, "MEAN_MOTION_DOT": 8.506e-05, "MEAN_MOTION_DDOT": 0, "GROUP": "cosmos-2251-debris"}, "tle": {"line1": "1 36050U 93036AXM 25333.43629249  .00008506  00000+0  61877-3 0  9990", "line2": "2 36050  74.0316 221.1088 0089283 303.7997  55.4710 15.00734928668356"}}, "geometry": {"type": "Point", "coordinates": [-148.10417932777753, -19.110488115482692]}}, {"type": "Feature", "properties": {"norad_id": 36053, "name": "COSMOS 2251 DEB", "group": "cosmos-2251-debris", "lat": -73.75823054785307, "lon": 91.54263341481717, "alt_km": 729.0697609775998, "timestamp": "2025-12-01T03:58:49.148425+00:00", "meta": {"OBJECT_NAME": "COSMOS 2251 DEB", "OBJECT_ID": "1993-036AXQ", "EPOCH": "2025-11-30T13:33:17.620128", "MEAN_MOTION": 14.56915099, "ECCENTRICITY": 0.0033229, "INCLINATION": 73.872, "RA_OF_ASC_NODE": 176.0409, "ARG_OF_PERICENTER": 129.2149, "MEAN_ANOMALY": 231.1973, "EPHEMERIS_TYPE": 0, "CLASSIFICATION_TYPE": "U", "NORAD_CAT_ID": 36053, "ELEMENT_SET_NO": 999, "REV_AT_EPOCH": 87267, "BSTAR": 0.0014364, "MEAN_MOTION_DOT": 6.471e-05, "MEAN_MOTION_DDOT": 0, "GROUP": "cosmos-2251-debris"}, "tle": {"line1": "1 36053U 93036AXQ 25334.56478727  .00006471  00000+0  14364-2 0  9998", "line2": "2 36053  73.8720 176.0409 0033229 129.2149 231.1973 14.56915099872675"}}, "geometry": {"type": "Point", "coordinates": [91.54263341481717, -73.75823054785307]}}]}